SL-16 R/B               
1 26070U 00006B   22058.42862389  .00000002  00000+0  25506-4 0  9993
2 26070  71.0037 310.4330 0018986 262.1728  97.7240 14.15482013140349
MTI                     
1 26102U 00014A   22058.52565460  .00061312  00000+0  40965-3 0  9995
2 26102  97.4617 345.3534 0007809  81.0598 279.1549 15.75112600221267
TITAN 4B R/B            
1 26474U 00047B   22058.57327753  .00001100  00000+0  10406-3 0  9995
2 26474  67.9940 168.2670 0060035 238.3065 121.2216 14.96473455172004
ENVISAT                 
1 27386U 02009A   22058.53329635  .00000112  00000+0  50484-4 0  9998
2 27386  98.1734  44.8567 0001236  91.1606  17.7550 14.38081830 47663
IDEFIX & ARIANE 42P R/B 
1 27422U 02021B   22058.47733591  .00000074  00000+0  45806-4 0  9995
2 27422  98.4372   7.8543 0011707 196.0845 163.9967 14.29365894 33747
AQUA                    
1 27424U 02022A   22058.58342106  .00000337  00000+0  84777-4 0  9990
2 27424  98.2370   1.5961 0000921 106.2591  67.2931 14.57150894 54188
CZ-4B R/B               
1 27432U 02024C   22058.58753477  .00000001  00000+0  24314-4 0  9997
2 27432  99.0729  82.0819 0049752 226.1344 242.8511 14.14126273 21291
MIDORI II (ADEOS-II)    
1 27597U 02056A   22058.43647700  .00000096  00000+0  56798-4 0  9994
2 27597  98.5954   4.0344 0001274  35.9047 324.2219 14.27561181   277
H-2A R/B                
1 27601U 02056E   22058.58809187  .00000026  00000+0  24210-4 0  9992
2 27601  98.1802  71.4701 0071183 228.4207 240.2854 14.32035796  3458
CZ-4B R/B               
1 28059U 03049C   22058.51917092  .00000157  00000+0  49305-4 0  9998
2 28059  98.5121 353.6574 0050899  44.1815 316.3428 14.52718500972850
CZ-2C R/B               
1 28222U 04012C   22058.50032272  .00002834  00000+0  16636-3 0  9992
2 28222  97.7610  37.4592 0047486  69.7847  42.7304 15.11640124979615
SL-16 R/B               
1 28353U 04021B   22058.51161610  .00000308  00000+0  18624-3 0  9990
2 28353  71.0001  78.8697 0003252 129.6172 230.5238 14.14258906914802
CZ-4B R/B               
1 28415U 04035C   22058.55635060  .00001220  00000+0  82070-4 0  9994
2 28415  97.5327 101.3400 0051726  37.2138 323.2657 15.07549129957034
CZ-2C R/B               
1 28480U 04046B   22058.59724351  .00000027  00000+0  25322-4 0  9995
2 28480  98.0583  55.0608 0141608 187.2563 281.9274 14.25793009898786
ARIANE 5 R/B            
1 28499U 04049H   22058.55635351  .00000303  00000+0  44236-4 0  9997
2 28499  98.0839 174.4191 0092998  69.8327 301.7617 14.80264854927825
CZ-2D R/B               
1 28738U 05024B   22058.52136735  .00001973  00000+0  11508-3 0  9995
2 28738  97.3554  70.4757 0011161 190.6280 169.4717 15.13044049915123
SUZAKU (ASTRO-EII)      
1 28773U 05025A   22058.34528715  .00003479  00000+0  15463-3 0  9995
2 28773  31.3811 301.0633 0004785 329.3377  30.6991 15.19695603918258
ALOS (DAICHI)           
1 28931U 06002A   22058.40780698  .00000444  00000+0  95380-4 0  9990
2 28931  97.9220  27.4763 0001034  22.5039 337.6206 14.63009129858331
H-2A R/B                
1 28932U 06002B   22058.58888399  .00001482  00000+0  13826-3 0  9994
2 28932  98.3068  95.0308 0088733  92.2290  24.5550 14.93010988873640
AKARI (ASTRO-F)         
1 28939U 06005A   22058.43872679  .00010898  00000+0  23886-3 0  9990
2 28939  98.2115 117.8644 0077684 307.2706  52.1470 15.41092341876119
RESURS-DK 1             
1 29228U 06021A   22058.47962074  .00000744  00000+0  62531-4 0  9993
2 29228  69.9350  49.2191 0007435 246.7778 113.2600 15.02942098865858
GENESIS 1               
1 29252U 06029A   22058.46818757  .00003069  00000+0  14646-3 0  9991
2 29252  64.5216  71.9971 0060609 278.3468  81.0787 15.19627007862251
CZ-4B R/B               
1 29507U 06046C   22058.51767284  .00000209  00000+0  20792-4 0  9990
2 29507  97.7368  89.0479 0047123 233.4030 126.2854 15.01335226838379
CZ-2C R/B               
1 31114U 07010B   22058.51708771  .00000133  00000+0  80909-4 0  9997
2 31114  98.2324 239.2957 0058584 258.4526 101.0071 14.19397403770969
COSMO-SKYMED 1          
1 31598U 07023A   22058.49470254  .00001381  00000+0  18000-3 0  9994
2 31598  97.8847 243.7387 0001266  88.8851 271.2463 14.82160704796671
GENESIS 2               
1 31789U 07028A   22058.52857133  .00002410  00000+0  12429-3 0  9993
2 31789  64.4964 114.7039 0034910 332.5287  27.3989 15.18575773809201
COSMOS 2428             
1 31792U 07029A   22058.44105185  .00000322  00000+0  20031-3 0  9990
2 31792  70.9334  50.5562 0010254 229.2657 130.7574 14.12473786756310
SL-16 R/B               
1 31793U 07029B   22058.35904370 -.00000195  00000+0 -76917-4 0  9999
2 31793  70.9780  24.1416 0002326 277.2487 192.7558 14.14466421757294
KORONAS-FOTON           
1 33504U 09003A   22058.23203656  .00001684  00000+0  84430-4 0  9992
2 33504  82.4436 325.8081 0017246 296.4348  63.5114 15.16557491721258
H-2A R/B                
1 38341U 12025E   22058.54616933  .00000601  00000+0  76957-4 0  9997
2 38341  98.5175 266.4405 0055870  40.9966 319.5426 14.84458800529347
CUSAT 2 & FALCON 9 R/B  
1 39271U 13055G   22058.41553742  .00013198  00000+0  29390-3 0  9991
2 39271  80.9642 315.8107 0549139  94.0296 272.3831 14.57953777440716
CZ-2C R/B               
1 39364U 13059B   22058.24932225  .00004351  00000+0  15003-3 0  9993
2 39364  97.1778 115.3631 0044832   8.0187 352.1760 15.29540344463353
SL-4 R/B                
1 39679U 14021B   22058.51751310  .00002545  00000+0  13633-3 0  9996
2 39679  51.6152 107.6173 0167205 296.4095  61.9799 15.07776355432520
ALOS-2                  
1 39766U 14029A   22058.29860783  .00000023  00000+0  99007-5 0  9991
2 39766  97.9206 157.0137 0001592  95.1495 264.9891 14.79472202419348
CZ-2C R/B               
1 40306U 14071B   22058.54998708  .00023856  00000+0  36564-3 0  9993
2 40306  97.4074  27.6935 0014663  66.6494 293.6300 15.54204553409788
SL-27 R/B               
1 40354U 14084B   22058.59217114  .00004992  00000+0  11404-3 0  9996
2 40354  74.7384 183.5369 0034592  57.2967 303.1573 15.42440377403652
YAOGAN 29               
1 41038U 15069A   22058.26725366  .00000165  00000+0  28500-4 0  9991
2 41038  98.0540  57.9792 0002171  68.7595 291.3853 14.80584425337986
ASTRO-H (HITOMI)        
1 41337U 16012A   22058.34584033  .00000936  00000+0  68332-4 0  9998
2 41337  31.0062  38.4627 0012097  78.6950 281.5043 14.99101415330583
HXMT (HUIYAN)           
1 42758U 17034A   22058.61563544  .00001391  00000+0  98071-4 0  9994
2 42758  43.0162 232.0842 0009536 308.6303 136.8320 15.09757891259574
CZ-2C R/B               
1 43521U 18054D   22058.18785229  .00002095  00000+0  11123-3 0  9998
2 43521  35.1540 317.8492 0080452 188.8312 171.0988 15.12347301202970
AEOLUS                  
1 43600U 18066A   22058.51662606  .00085184  00000+0  33503-3 0  9995
2 43600  96.7119  66.2747 0007194  90.7168 269.4929 15.86631822203695
SAOCOM 1A               
1 43641U 18076A   22058.50305946  .00000159  00000+0  26473-4 0  9999
2 43641  97.8866 246.7660 0001424  83.4183 276.7217 14.82149797183447
SAOCOM 1B               
1 46265U 20059A   22058.46669389 -.00000223  00000+0 -21512-4 0  9990
2 46265  97.8863 245.7991 0001355  68.4508 291.6582 14.82154083 80836
SL-4 R/B                
1 47547U 21008B   22058.41177288  .01750225  59942-5  50195-3 0  9992
2 47547  67.1067 322.3329 0059307  77.5051  44.6424 16.22237360 59874
TIANHE                  
1 48274U 21035A   22058.58278481  .00016008  00000+0  18047-3 0  9993
2 48274  41.4686 166.7582 0005144  22.1148 351.7601 15.62156187 47638
